{
    "links": {
        "self": "http://www.neowsapp.com/rest/v1/neo/3609223?api_key=iIulBulltgU6a56xZRHN4H3l9WmuAYTsLGpBGhQ2"
    },
    "id": "3609223",
    "neo_reference_id": "3609223",
    "name": "(2012 SM50)",
    "designation": "2012 SM50",
    "nasa_jpl_url": "http://ssd.jpl.nasa.gov/sbdb.cgi?sstr=3609223",
    "absolute_magnitude_h": 24.5,
    "estimated_diameter": {
        "kilometers": {
            "estimated_diameter_min": 0.0334622374,
            "estimated_diameter_max": 0.0748238376
        },
        "meters": {
            "estimated_diameter_min": 33.4622374455,
            "estimated_diameter_max": 74.8238376074
        },
        "miles": {
            "estimated_diameter_min": 0.0207924639,
            "estimated_diameter_max": 0.0464933628
        },
        "feet": {
            "estimated_diameter_min": 109.7842471007,
            "estimated_diameter_max": 245.4850393757
        }
    },
    "is_potentially_hazardous_asteroid": false,
    "close_approach_data": [
        {
            "close_approach_date": "2012-09-30",
            "close_approach_date_full": "2012-Sep-30 07:04",
            "epoch_date_close_approach": 1348988640000,
            "relative_velocity": {
                "kilometers_per_second": "8.6919994052",
                "kilometers_per_hour": "31291.1978585999",
                "miles_per_hour": "19443.1334694173"
            },
            "miss_distance": {
                "astronomical": "0.1074055428",
                "lunar": "41.7807561492",
                "kilometers": "16067640.429073836",
                "miles": "9983968.7998414968"
            },
            "orbiting_body": "Earth"
        },
        {
            "close_approach_date": "2013-02-06",
            "close_approach_date_full": "2013-Feb-06 10:16",
            "epoch_date_close_approach": 1360145760000,
            "relative_velocity": {
                "kilometers_per_second": "9.1959079714",
                "kilometers_per_hour": "33105.2686972072",
                "miles_per_hour": "20570.3265413286"
            },
            "miss_distance": {
                "astronomical": "0.3018675699",
                "lunar": "117.4264846911",
                "kilometers": "45158745.479116113",
                "miles": "28060343.2653158394"
            },
            "orbiting_body": "Earth"
        },
        {
            "close_approach_date": "2016-10-03",
            "close_approach_date_full": "2016-Oct-03 06:15",
            "epoch_date_close_approach": 1475475300000,
            "relative_velocity": {
                "kilometers_per_second": "11.2595853909",
                "kilometers_per_hour": "40534.5074070647",
                "miles_per_hour": "25186.5665607953"
            },
            "miss_distance": {
                "astronomical": "0.2256753808",
                "lunar": "87.7877231312",
                "kilometers": "33760556.279118896",
                "miles": "20977836.9166209248"
            },
            "orbiting_body": "Earth"
        }
    ],
    "orbital_data": {
        "orbit_id": "5",
        "orbit_determination_date": "2017-04-06 08:48:50",
        "first_observation_date": "2012-09-24",
        "last_observation_date": "2012-09-25",
        "data_arc_in_days": 1,
        "observations_used": 29,
        "orbit_uncertainty": "8",
        "minimum_orbit_intersection": ".106479",
        "jupiter_tisserand_invariant": "5.236",
        "epoch_osculation": "2456195.5",
        "eccentricity": ".134552049248602",
        "semi_major_axis": "1.204088505418224",
        "inclination": "16.4026949231475",
        "ascending_node_longitude": "1.442250393862494",
        "orbital_period": "482.5985832585804",
        "perihelion_distance": "1.042075929537516",
        "perihelion_argument": "63.84466856155419",
        "aphelion_distance": "1.366101081298933",
        "perihelion_time": "2456262.308495685449",
        "mean_anomaly": "310.1634292327069",
        "mean_motion": ".7459615765326625",
        "equinox": "J2000",
        "orbit_class": {
            "orbit_class_type": "AMO",
            "orbit_class_description": "Near-Earth asteroid orbits similar to that of 1221 Amor",
            "orbit_class_range": "1.017 AU < q (perihelion) < 1.3 AU"
        }
    },
    "is_sentry_object": false
}